{
"type": "FeatureCollection",
"name": "village_health_access",
"crs": { "type": "name", "properties": { "name": "urn:ogc:def:crs:OGC:1.3:CRS84" } },
"features": [
{"type":"Feature","properties":{"fid":2932,"id":39731,"objectid_1":39731.0,"objectid":106266.0,"village":"Mokhala","vlcode":"540915","gram_panch":null,"gram_pan_1":null,"block":"Sawali","bkcode":"119","subdistric":"Sawali","sdcode":"4068","sub_distri":"Sawali","district":"Chandrapur","dtcode":"473","district_h":"CHANDRAPUR","state":"MH","stcode":"27","uqcode":null,"country":"India","total_urba":"Rural","total_hous":456.0,"total_popu":1871.0,"avg_househ":4.10307018,"total_geog":499.0,"total_male":936.0,"total_fema":935.0,"tapwater_t":"Available","tapwater_u":"Not Available","covered_we":"Not Available","covered__1":"Not Available","covered__2":"Not Available","uncovered_":"Available","uncovere_1":"Available","uncovere_2":"Available","handpump_s":"Available","hand_pump_":"Available","hand_pum_1":"Available","tubewell_b":"Not Available","tube_wells":"Not Available","tube_wel_1":"Not Available","spring_sta":"Not Available","spring_fun":"Not Available","spring_f_1":"Not Available","river_cana":"Not Available","tank_pond_":"Not Available","others_sta":"Not Available","closed_dra":"Not Available","open_drain":"Available","village_pi":"Available","forest_are":50.0,"area_under":46.0,"barren_unc":0.0,"permanent_":6.0,"land_under":0.0,"culturable":20.0,"fallows_la":16.0,"current_fa":24.0,"net_area_s":336.0,"total_unir":185.0,"area_irrig":151.0,"canals_are":135.0,"wells_tube":0.0,"tanks_lake":45.0,"waterfall_":0.0,"other_sour":5.0,"nearest_to":"MUL","nearest__1":27.0,"shape_leng":5415.8195548883878,"shape_le_1":5415.8195548883878,"shape_area":1100098.5700465406,"ds_name":"Administrative Boundary","src_agency":"Survey of India (SOI)","state_name":"Maharashtra\n","full_id":"n7625491685","osm_id":"7625491685","osm_type":"node","amenity":"hospital","ref":null,"phone:mobile":null,"loc_name:en":null,"medical_supply":null,"loc_name":null,"short_name:en":null,"short_name":null,"payment:google_pay":null,"payment:coins":null,"service":null,"payment:visa":null,"payment:mastercard":null,"payment:contactless":null,"payment:app":null,"internet_access:ssid":null,"payment:upi":null,"contact:facebook":null,"services":null,"payment:wallets":null,"payment:cards":null,"operational_status_quality":null,"building:use":null,"building:levels:underground":null,"building:levels":null,"parking":null,"brand":null,"entrance":null,"air_conditioning":null,"addr:floor":null,"image":null,"not:operator:wikidata":null,"mobile":null,"name:es":null,"addr:city:ur":null,"ele":null,"locality":null,"addr:landmark":null,"power":null,"natural":null,"opening_hours:covid19":null,"closing_hours":null,"survey:date":null,"geometry":null,"name:pa":null,"operator:short":null,"contact:helpline":null,"contact:website":null,"addr:quarter":null,"addr:neighbourhood":null,"aeroway":null,"old_name":null,"contact:tollfree":null,"start_date":null,"internet_access:fee":null,"operator:wikidata":null,"level":null,"payment:debit_cards":null,"payment:credit_cards":null,"payment:cash":null,"motor_vehicle":null,"horse":null,"access":null,"addr:unit":null,"addr:locality":null,"shop":null,"highway":null,"emergency_telephone_code":null,"opening_hours":null,"operational_status":null,"building":null,"addr:housename":null,"addr":null,"place":null,"name:ur":null,"contact:email":null,"addr:suburb":null,"health_facility:type":null,"designation":null,"contact:mobile":null,"addr:block":null,"wheelchair":null,"medical_system":null,"operator":null,"addr:place":null,"speciality":null,"operator:type":null,"foot":null,"bicycle":null,"barrier":null,"fax":null,"email":null,"healthcare:speciality":null,"name:mr":null,"name:hi":null,"name:en":null,"wikipedia":null,"wikimedia_commons":null,"addr:housenumber":null,"phone":null,"description":null,"alias":null,"name:kn":null,"wikidata":null,"internet_access":null,"check_date":null,"addr:subdistrict":null,"addr:street":null,"website":null,"contact:phone":null,"addr:city":null,"addr:state":"Maharastra","addr:postcode":"442605","addr:full":"Gokul Nagar, Gadchiroli","addr:district":"Gadchiroli","name:etymology:wikidata":null,"healthcare":null,"emergency":null,"addr:country":null,"postal_code":null,"population":null,"name:te":null,"name":"Dr. Mallick Hospital","is_in":null,"alt_name":null,"AND_a_nosr_p":null,"n":1,"distance":0.09846994917671828,"feature_x":79.905214608788157,"feature_y":20.12658675777039,"nearest_x":79.989989,"nearest_y":20.176683},"geometry":{"type":"Point","coordinates":[79.905214608788157,20.12658675777039]}},
{"type":"Feature","properties":{"fid":3027,"id":39823,"objectid_1":39823.0,"objectid":106358.0,"village":"Donala","vlcode":"540965","gram_panch":null,"gram_pan_1":null,"block":"Sawali","bkcode":"119","subdistric":"Sawali","sdcode":"4068","sub_distri":"Sawali","district":"Chandrapur","dtcode":"473","district_h":"CHANDRAPUR","state":"MH","stcode":"27","uqcode":null,"country":"India","total_urba":"Rural","total_hous":303.0,"total_popu":1174.0,"avg_househ":3.87458746,"total_geog":170.0,"total_male":582.0,"total_fema":592.0,"tapwater_t":"Not Available","tapwater_u":"Available","covered_we":"Not Available","covered__1":"Not Available","covered__2":"Not Available","uncovered_":"Available","uncovere_1":"Available","uncovere_2":"Available","handpump_s":"Available","hand_pump_":"Available","hand_pum_1":"Available","tubewell_b":"Not Available","tube_wells":"Not Available","tube_wel_1":"Not Available","spring_sta":"Not Available","spring_fun":"Not Available","spring_f_1":"Not Available","river_cana":"Available","tank_pond_":"Available","others_sta":"Not Available","closed_dra":"Not Available","open_drain":"Available","village_pi":"Available","forest_are":15.0,"area_under":0.0,"barren_unc":34.0,"permanent_":5.0,"land_under":0.0,"culturable":3.0,"fallows_la":2.0,"current_fa":1.0,"net_area_s":110.0,"total_unir":71.0,"area_irrig":39.0,"canals_are":0.0,"wells_tube":0.0,"tanks_lake":71.0,"waterfall_":0.0,"other_sour":1.0,"nearest_to":"MUL","nearest__1":57.0,"shape_leng":4216.8793023156295,"shape_le_1":4216.8793023156295,"shape_area":913322.73743538803,"ds_name":"Administrative Boundary","src_agency":"Survey of India (SOI)","state_name":"Maharashtra\n","full_id":"n5909789824","osm_id":"5909789824","osm_type":"node","amenity":"hospital","ref":null,"phone:mobile":null,"loc_name:en":null,"medical_supply":null,"loc_name":null,"short_name:en":null,"short_name":null,"payment:google_pay":null,"payment:coins":null,"service":null,"payment:visa":null,"payment:mastercard":null,"payment:contactless":null,"payment:app":null,"internet_access:ssid":null,"payment:upi":null,"contact:facebook":null,"services":null,"payment:wallets":null,"payment:cards":null,"operational_status_quality":null,"building:use":null,"building:levels:underground":null,"building:levels":null,"parking":null,"brand":null,"entrance":null,"air_conditioning":null,"addr:floor":null,"image":null,"not:operator:wikidata":null,"mobile":null,"name:es":null,"addr:city:ur":null,"ele":null,"locality":null,"addr:landmark":null,"power":null,"natural":null,"opening_hours:covid19":null,"closing_hours":null,"survey:date":null,"geometry":null,"name:pa":null,"operator:short":null,"contact:helpline":null,"contact:website":null,"addr:quarter":null,"addr:neighbourhood":null,"aeroway":null,"old_name":null,"contact:tollfree":null,"start_date":null,"internet_access:fee":null,"operator:wikidata":null,"level":null,"payment:debit_cards":null,"payment:credit_cards":null,"payment:cash":null,"motor_vehicle":null,"horse":null,"access":null,"addr:unit":null,"addr:locality":null,"shop":null,"highway":null,"emergency_telephone_code":null,"opening_hours":null,"operational_status":null,"building":null,"addr:housename":null,"addr":null,"place":null,"name:ur":null,"contact:email":null,"addr:suburb":null,"health_facility:type":null,"designation":null,"contact:mobile":null,"addr:block":null,"wheelchair":null,"medical_system":null,"operator":null,"addr:place":null,"speciality":null,"operator:type":null,"foot":null,"bicycle":null,"barrier":null,"fax":null,"email":null,"healthcare:speciality":null,"name:mr":null,"name:hi":null,"name:en":null,"wikipedia":null,"wikimedia_commons":null,"addr:housenumber":null,"phone":"9422137107","description":null,"alias":null,"name:kn":null,"wikidata":null,"internet_access":null,"check_date":null,"addr:subdistrict":null,"addr:street":null,"website":null,"contact:phone":null,"addr:city":null,"addr:state":null,"addr:postcode":null,"addr:full":null,"addr:district":null,"name:etymology:wikidata":null,"healthcare":null,"emergency":null,"addr:country":null,"postal_code":null,"population":null,"name:te":null,"name":"Balprabha Hospital","is_in":null,"alt_name":null,"AND_a_nosr_p":null,"n":1,"distance":0.11211684212188959,"feature_x":79.965913794247015,"feature_y":20.01753700735437,"nearest_x":79.8872772,"nearest_y":19.9376216},"geometry":{"type":"Point","coordinates":[79.965913794247015,20.01753700735437]}},
{"type":"Feature","properties":{"fid":3050,"id":39848,"objectid_1":39848.0,"objectid":106383.0,"village":"Shivni","vlcode":"539176","gram_panch":null,"gram_pan_1":null,"block":"Gadchiroli","bkcode":"108","subdistric":"Gadchiroli","sdcode":"4057","sub_distri":"Gadchiroli","district":"Gadchiroli","dtcode":"475","district_h":"GADCHIROLI","state":"MH","stcode":"27","uqcode":null,"country":"India","total_urba":"Rural","total_hous":482.0,"total_popu":1883.0,"avg_househ":3.906639,"total_geog":877.0,"total_male":954.0,"total_fema":929.0,"tapwater_t":"Not Available","tapwater_u":"Available","covered_we":"Available","covered__1":"Available","covered__2":"Available","uncovered_":"Available","uncovere_1":"Available","uncovere_2":"Available","handpump_s":"Available","hand_pump_":"Available","hand_pum_1":"Available","tubewell_b":"Not Available","tube_wells":"Not Available","tube_wel_1":"Not Available","spring_sta":"Not Available","spring_fun":"Not Available","spring_f_1":"Not Available","river_cana":"Available","tank_pond_":"Available","others_sta":"Not Available","closed_dra":"Not Available","open_drain":"Available","village_pi":"Available","forest_are":10.0,"area_under":58.0,"barren_unc":20.0,"permanent_":2.0,"land_under":2.0,"culturable":0.0,"fallows_la":2.0,"current_fa":0.0,"net_area_s":784.0,"total_unir":356.0,"area_irrig":428.0,"canals_are":0.0,"wells_tube":7.0,"tanks_lake":169.0,"waterfall_":0.0,"other_sour":180.0,"nearest_to":"GADCHIROLI","nearest__1":10.0,"shape_leng":17041.918999151865,"shape_le_1":17041.918999151865,"shape_area":11963491.465348668,"ds_name":"Administrative Boundary","src_agency":"Survey of India (SOI)","state_name":"Maharashtra\n","full_id":"n7625491685","osm_id":"7625491685","osm_type":"node","amenity":"hospital","ref":null,"phone:mobile":null,"loc_name:en":null,"medical_supply":null,"loc_name":null,"short_name:en":null,"short_name":null,"payment:google_pay":null,"payment:coins":null,"service":null,"payment:visa":null,"payment:mastercard":null,"payment:contactless":null,"payment:app":null,"internet_access:ssid":null,"payment:upi":null,"contact:facebook":null,"services":null,"payment:wallets":null,"payment:cards":null,"operational_status_quality":null,"building:use":null,"building:levels:underground":null,"building:levels":null,"parking":null,"brand":null,"entrance":null,"air_conditioning":null,"addr:floor":null,"image":null,"not:operator:wikidata":null,"mobile":null,"name:es":null,"addr:city:ur":null,"ele":null,"locality":null,"addr:landmark":null,"power":null,"natural":null,"opening_hours:covid19":null,"closing_hours":null,"survey:date":null,"geometry":null,"name:pa":null,"operator:short":null,"contact:helpline":null,"contact:website":null,"addr:quarter":null,"addr:neighbourhood":null,"aeroway":null,"old_name":null,"contact:tollfree":null,"start_date":null,"internet_access:fee":null,"operator:wikidata":null,"level":null,"payment:debit_cards":null,"payment:credit_cards":null,"payment:cash":null,"motor_vehicle":null,"horse":null,"access":null,"addr:unit":null,"addr:locality":null,"shop":null,"highway":null,"emergency_telephone_code":null,"opening_hours":null,"operational_status":null,"building":null,"addr:housename":null,"addr":null,"place":null,"name:ur":null,"contact:email":null,"addr:suburb":null,"health_facility:type":null,"designation":null,"contact:mobile":null,"addr:block":null,"wheelchair":null,"medical_system":null,"operator":null,"addr:place":null,"speciality":null,"operator:type":null,"foot":null,"bicycle":null,"barrier":null,"fax":null,"email":null,"healthcare:speciality":null,"name:mr":null,"name:hi":null,"name:en":null,"wikipedia":null,"wikimedia_commons":null,"addr:housenumber":null,"phone":null,"description":null,"alias":null,"name:kn":null,"wikidata":null,"internet_access":null,"check_date":null,"addr:subdistrict":null,"addr:street":null,"website":null,"contact:phone":null,"addr:city":null,"addr:state":"Maharastra","addr:postcode":"442605","addr:full":"Gokul Nagar, Gadchiroli","addr:district":"Gadchiroli","name:etymology:wikidata":null,"healthcare":null,"emergency":null,"addr:country":null,"postal_code":null,"population":null,"name:te":null,"name":"Dr. Mallick Hospital","is_in":null,"alt_name":null,"AND_a_nosr_p":null,"n":1,"distance":0.069079894349421189,"feature_x":79.995589057524143,"feature_y":20.107830468027288,"nearest_x":79.989989,"nearest_y":20.176683},"geometry":{"type":"Point","coordinates":[79.995589057524143,20.107830468027288]}},
{"type":"Feature","properties":{"fid":3070,"id":40919,"objectid_1":40919.0,"objectid":107454.0,"village":"Mohad Chak","vlcode":"540888","gram_panch":null,"gram_pan_1":null,"block":"Sawali","bkcode":"119","subdistric":"Sawali","sdcode":"4068","sub_distri":"Sawali","district":"Chandrapur","dtcode":"473","district_h":"CHANDRAPUR","state":"MH","stcode":"27","uqcode":null,"country":"India","total_urba":"Rural","total_hous":0.0,"total_popu":0.0,"avg_househ":0.0,"total_geog":184.0,"total_male":0.0,"total_fema":0.0,"tapwater_t":null,"tapwater_u":null,"covered_we":null,"covered__1":null,"covered__2":null,"uncovered_":null,"uncovere_1":null,"uncovere_2":null,"handpump_s":null,"hand_pump_":null,"hand_pum_1":null,"tubewell_b":null,"tube_wells":null,"tube_wel_1":null,"spring_sta":null,"spring_fun":null,"spring_f_1":null,"river_cana":null,"tank_pond_":null,"others_sta":null,"closed_dra":null,"open_drain":null,"village_pi":null,"forest_are":0.0,"area_under":0.0,"barren_unc":35.0,"permanent_":0.0,"land_under":0.0,"culturable":51.0,"fallows_la":62.0,"current_fa":0.0,"net_area_s":37.0,"total_unir":0.0,"area_irrig":37.0,"canals_are":0.0,"wells_tube":0.0,"tanks_lake":0.0,"waterfall_":0.0,"other_sour":0.0,"nearest_to":null,"nearest__1":0.0,"shape_leng":6507.3913800457694,"shape_le_1":6507.3913800457694,"shape_area":1923971.04374213,"ds_name":"Administrative Boundary","src_agency":"Survey of India (SOI)","state_name":"Maharashtra\n","full_id":"n7625491639","osm_id":"7625491639","osm_type":"node","amenity":"hospital","ref":null,"phone:mobile":null,"loc_name:en":null,"medical_supply":null,"loc_name":null,"short_name:en":null,"short_name":null,"payment:google_pay":null,"payment:coins":null,"service":null,"payment:visa":null,"payment:mastercard":null,"payment:contactless":null,"payment:app":null,"internet_access:ssid":null,"payment:upi":null,"contact:facebook":null,"services":null,"payment:wallets":null,"payment:cards":null,"operational_status_quality":null,"building:use":null,"building:levels:underground":null,"building:levels":null,"parking":null,"brand":null,"entrance":null,"air_conditioning":null,"addr:floor":null,"image":null,"not:operator:wikidata":null,"mobile":null,"name:es":null,"addr:city:ur":null,"ele":null,"locality":null,"addr:landmark":null,"power":null,"natural":null,"opening_hours:covid19":null,"closing_hours":null,"survey:date":null,"geometry":null,"name:pa":null,"operator:short":null,"contact:helpline":null,"contact:website":null,"addr:quarter":null,"addr:neighbourhood":null,"aeroway":null,"old_name":null,"contact:tollfree":null,"start_date":null,"internet_access:fee":null,"operator:wikidata":null,"level":null,"payment:debit_cards":null,"payment:credit_cards":null,"payment:cash":null,"motor_vehicle":null,"horse":null,"access":null,"addr:unit":null,"addr:locality":null,"shop":null,"highway":null,"emergency_telephone_code":null,"opening_hours":null,"operational_status":null,"building":null,"addr:housename":null,"addr":null,"place":null,"name:ur":null,"contact:email":null,"addr:suburb":null,"health_facility:type":null,"designation":null,"contact:mobile":null,"addr:block":null,"wheelchair":null,"medical_system":null,"operator":null,"addr:place":null,"speciality":null,"operator:type":null,"foot":null,"bicycle":null,"barrier":null,"fax":null,"email":null,"healthcare:speciality":null,"name:mr":null,"name:hi":null,"name:en":null,"wikipedia":null,"wikimedia_commons":null,"addr:housenumber":null,"phone":null,"description":null,"alias":null,"name:kn":null,"wikidata":null,"internet_access":null,"check_date":null,"addr:subdistrict":null,"addr:street":null,"website":null,"contact:phone":null,"addr:city":null,"addr:state":"Maharastra","addr:postcode":"442605","addr:full":"Gokul Nagar, Gadchiroli","addr:district":"Gadchiroli","name:etymology:wikidata":null,"healthcare":null,"emergency":null,"addr:country":null,"postal_code":null,"population":null,"name:te":null,"name":"Nobel Multispeciality Hospital","is_in":null,"alt_name":null,"AND_a_nosr_p":null,"n":1,"distance":0.077503783084604441,"feature_x":79.911964868184711,"feature_y":20.170952169322536,"nearest_x":79.9891038,"nearest_y":20.1784636},"geometry":{"type":"Point","coordinates":[79.911964868184711,20.170952169322536]}},
{"type":"Feature","properties":{"fid":4049,"id":40874,"objectid_1":40874.0,"objectid":107409.0,"village":"Dabgaon Maushi","vlcode":"540908","gram_panch":null,"gram_pan_1":null,"block":"Sawali","bkcode":"119","subdistric":"Sawali","sdcode":"4068","sub_distri":"Sawali","district":"Chandrapur","dtcode":"473","district_h":"CHANDRAPUR","state":"MH","stcode":"27","uqcode":null,"country":"India","total_urba":"Rural","total_hous":231.0,"total_popu":896.0,"avg_househ":3.87878788,"total_geog":537.0,"total_male":452.0,"total_fema":444.0,"tapwater_t":"Not Available","tapwater_u":"Not Available","covered_we":"Not Available","covered__1":"Not Available","covered__2":"Not Available","uncovered_":"Available","uncovere_1":"Available","uncovere_2":"Available","handpump_s":"Available","hand_pump_":"Available","hand_pum_1":"Available","tubewell_b":"Available","tube_wells":"Available","tube_wel_1":"Not Available","spring_sta":"Not Available","spring_fun":"Not Available","spring_f_1":"Not Available","river_cana":"Not Available","tank_pond_":"Not Available","others_sta":"Not Available","closed_dra":"Not Available","open_drain":"Not Available","village_pi":"Available","forest_are":0.0,"area_under":81.0,"barren_unc":0.0,"permanent_":65.0,"land_under":0.0,"culturable":0.0,"fallows_la":0.0,"current_fa":13.0,"net_area_s":377.0,"total_unir":301.0,"area_irrig":76.0,"canals_are":293.0,"wells_tube":1.0,"tanks_lake":0.0,"waterfall_":0.0,"other_sour":7.0,"nearest_to":"MUL","nearest__1":31.0,"shape_leng":16214.185773566027,"shape_le_1":16214.185773566027,"shape_area":7283379.52515506,"ds_name":"Administrative Boundary","src_agency":"Survey of India (SOI)","state_name":"Maharashtra\n","full_id":"n7625491639","osm_id":"7625491639","osm_type":"node","amenity":"hospital","ref":null,"phone:mobile":null,"loc_name:en":null,"medical_supply":null,"loc_name":null,"short_name:en":null,"short_name":null,"payment:google_pay":null,"payment:coins":null,"service":null,"payment:visa":null,"payment:mastercard":null,"payment:contactless":null,"payment:app":null,"internet_access:ssid":null,"payment:upi":null,"contact:facebook":null,"services":null,"payment:wallets":null,"payment:cards":null,"operational_status_quality":null,"building:use":null,"building:levels:underground":null,"building:levels":null,"parking":null,"brand":null,"entrance":null,"air_conditioning":null,"addr:floor":null,"image":null,"not:operator:wikidata":null,"mobile":null,"name:es":null,"addr:city:ur":null,"ele":null,"locality":null,"addr:landmark":null,"power":null,"natural":null,"opening_hours:covid19":null,"closing_hours":null,"survey:date":null,"geometry":null,"name:pa":null,"operator:short":null,"contact:helpline":null,"contact:website":null,"addr:quarter":null,"addr:neighbourhood":null,"aeroway":null,"old_name":null,"contact:tollfree":null,"start_date":null,"internet_access:fee":null,"operator:wikidata":null,"level":null,"payment:debit_cards":null,"payment:credit_cards":null,"payment:cash":null,"motor_vehicle":null,"horse":null,"access":null,"addr:unit":null,"addr:locality":null,"shop":null,"highway":null,"emergency_telephone_code":null,"opening_hours":null,"operational_status":null,"building":null,"addr:housename":null,"addr":null,"place":null,"name:ur":null,"contact:email":null,"addr:suburb":null,"health_facility:type":null,"designation":null,"contact:mobile":null,"addr:block":null,"wheelchair":null,"medical_system":null,"operator":null,"addr:place":null,"speciality":null,"operator:type":null,"foot":null,"bicycle":null,"barrier":null,"fax":null,"email":null,"healthcare:speciality":null,"name:mr":null,"name:hi":null,"name:en":null,"wikipedia":null,"wikimedia_commons":null,"addr:housenumber":null,"phone":null,"description":null,"alias":null,"name:kn":null,"wikidata":null,"internet_access":null,"check_date":null,"addr:subdistrict":null,"addr:street":null,"website":null,"contact:phone":null,"addr:city":null,"addr:state":"Maharastra","addr:postcode":"442605","addr:full":"Gokul Nagar, Gadchiroli","addr:district":"Gadchiroli","name:etymology:wikidata":null,"healthcare":null,"emergency":null,"addr:country":null,"postal_code":null,"population":null,"name:te":null,"name":"Nobel Multispeciality Hospital","is_in":null,"alt_name":null,"AND_a_nosr_p":null,"n":1,"distance":0.097537310988543166,"feature_x":79.894588614788248,"feature_y":20.154371966612768,"nearest_x":79.9891038,"nearest_y":20.1784636},"geometry":{"type":"Point","coordinates":[79.894588614788248,20.154371966612768]}},
{"type":"Feature","properties":{"fid":4062,"id":40886,"objectid_1":40886.0,"objectid":107421.0,"village":"Kudesawali","vlcode":"540859","gram_panch":null,"gram_pan_1":null,"block":"Brahmapuri","bkcode":"118","subdistric":"Brahmapuri","sdcode":"4067","sub_distri":"Brahmapuri","district":"Chandrapur","dtcode":"473","district_h":"CHANDRAPUR","state":"MH","stcode":"27","uqcode":null,"country":"India","total_urba":"Rural","total_hous":298.0,"total_popu":1147.0,"avg_househ":3.84899329,"total_geog":350.0,"total_male":597.0,"total_fema":550.0,"tapwater_t":"Not Available","tapwater_u":"Not Available","covered_we":"Not Available","covered__1":"Not Available","covered__2":"Not Available","uncovered_":"Available","uncovere_1":"Available","uncovere_2":"Available","handpump_s":"Available","hand_pump_":"Available","hand_pum_1":"Available","tubewell_b":"Not Available","tube_wells":"Not Available","tube_wel_1":"Not Available","spring_sta":"Not Available","spring_fun":"Not Available","spring_f_1":"Not Available","river_cana":"Available","tank_pond_":"Not Available","others_sta":"Not Available","closed_dra":"Not Available","open_drain":"Available","village_pi":"Available","forest_are":42.0,"area_under":0.0,"barren_unc":80.0,"permanent_":5.0,"land_under":0.0,"culturable":2.0,"fallows_la":7.0,"current_fa":23.0,"net_area_s":191.0,"total_unir":29.0,"area_irrig":162.0,"canals_are":0.0,"wells_tube":1.0,"tanks_lake":22.0,"waterfall_":0.0,"other_sour":5.0,"nearest_to":"BRAHMAPURI","nearest__1":41.0,"shape_leng":11086.608030198178,"shape_le_1":11086.608030198178,"shape_area":6063382.9212483801,"ds_name":"Administrative Boundary","src_agency":"Survey of India (SOI)","state_name":"Maharashtra\n","full_id":"n7625491627","osm_id":"7625491627","osm_type":"node","amenity":"hospital","ref":null,"phone:mobile":null,"loc_name:en":null,"medical_supply":null,"loc_name":null,"short_name:en":null,"short_name":null,"payment:google_pay":null,"payment:coins":null,"service":null,"payment:visa":null,"payment:mastercard":null,"payment:contactless":null,"payment:app":null,"internet_access:ssid":null,"payment:upi":null,"contact:facebook":null,"services":null,"payment:wallets":null,"payment:cards":null,"operational_status_quality":null,"building:use":null,"building:levels:underground":null,"building:levels":null,"parking":null,"brand":null,"entrance":null,"air_conditioning":null,"addr:floor":null,"image":null,"not:operator:wikidata":null,"mobile":null,"name:es":null,"addr:city:ur":null,"ele":null,"locality":null,"addr:landmark":null,"power":null,"natural":null,"opening_hours:covid19":null,"closing_hours":null,"survey:date":null,"geometry":null,"name:pa":null,"operator:short":null,"contact:helpline":null,"contact:website":null,"addr:quarter":null,"addr:neighbourhood":null,"aeroway":null,"old_name":null,"contact:tollfree":null,"start_date":null,"internet_access:fee":null,"operator:wikidata":null,"level":null,"payment:debit_cards":null,"payment:credit_cards":null,"payment:cash":null,"motor_vehicle":null,"horse":null,"access":null,"addr:unit":null,"addr:locality":null,"shop":null,"highway":null,"emergency_telephone_code":null,"opening_hours":null,"operational_status":null,"building":null,"addr:housename":null,"addr":null,"place":null,"name:ur":null,"contact:email":null,"addr:suburb":null,"health_facility:type":null,"designation":null,"contact:mobile":null,"addr:block":null,"wheelchair":null,"medical_system":null,"operator":null,"addr:place":null,"speciality":null,"operator:type":null,"foot":null,"bicycle":null,"barrier":null,"fax":null,"email":null,"healthcare:speciality":null,"name:mr":null,"name:hi":null,"name:en":null,"wikipedia":null,"wikimedia_commons":null,"addr:housenumber":null,"phone":null,"description":null,"alias":null,"name:kn":null,"wikidata":null,"internet_access":null,"check_date":null,"addr:subdistrict":null,"addr:street":null,"website":null,"contact:phone":null,"addr:city":null,"addr:state":"Maharastra","addr:postcode":"442605","addr:full":"Mahadwadi","addr:district":"Gadchiroli","name:etymology:wikidata":null,"healthcare":null,"emergency":null,"addr:country":null,"postal_code":null,"population":null,"name:te":null,"name":"Janatal Hospital","is_in":null,"alt_name":null,"AND_a_nosr_p":null,"n":1,"distance":0.1240641319065363,"feature_x":79.931261318293224,"feature_y":20.319958851567353,"nearest_x":80.0155217,"nearest_y":20.2288979},"geometry":{"type":"Point","coordinates":[79.931261318293224,20.319958851567353]}},
{"type":"Feature","properties":{"fid":4100,"id":40931,"objectid_1":40931.0,"objectid":107466.0,"village":"Wasa Chak No 2","vlcode":"539097","gram_panch":null,"gram_pan_1":null,"block":"Gadchiroli","bkcode":"108","subdistric":"Gadchiroli","sdcode":"4057","sub_distri":"Gadchiroli","district":"Gadchiroli","dtcode":"475","district_h":"GADCHIROLI","state":"MH","stcode":"27","uqcode":null,"country":"India","total_urba":"Rural","total_hous":73.0,"total_popu":254.0,"avg_househ":3.47945205,"total_geog":230.0,"total_male":124.0,"total_fema":130.0,"tapwater_t":"Not Available","tapwater_u":"Not Available","covered_we":"Not Available","covered__1":"Not Available","covered__2":"Not Available","uncovered_":"Available","uncovere_1":"Available","uncovere_2":"Available","handpump_s":"Available","hand_pump_":"Available","hand_pum_1":"Available","tubewell_b":"Available","tube_wells":"Available","tube_wel_1":"Available","spring_sta":"Not Available","spring_fun":"Not Available","spring_f_1":"Not Available","river_cana":"Not Available","tank_pond_":"Available","others_sta":"Not Available","closed_dra":"Not Available","open_drain":"Available","village_pi":"Available","forest_are":0.0,"area_under":18.0,"barren_unc":0.0,"permanent_":50.0,"land_under":0.0,"culturable":20.0,"fallows_la":12.0,"current_fa":3.0,"net_area_s":126.0,"total_unir":38.0,"area_irrig":88.0,"canals_are":0.0,"wells_tube":0.0,"tanks_lake":36.0,"waterfall_":0.0,"other_sour":2.0,"nearest_to":"GADCHIROLI","nearest__1":15.0,"shape_leng":5961.4203110493045,"shape_le_1":5961.4203110493045,"shape_area":1917648.8895151524,"ds_name":"Administrative Boundary","src_agency":"Survey of India (SOI)","state_name":"Maharashtra\n","full_id":"n7625491627","osm_id":"7625491627","osm_type":"node","amenity":"hospital","ref":null,"phone:mobile":null,"loc_name:en":null,"medical_supply":null,"loc_name":null,"short_name:en":null,"short_name":null,"payment:google_pay":null,"payment:coins":null,"service":null,"payment:visa":null,"payment:mastercard":null,"payment:contactless":null,"payment:app":null,"internet_access:ssid":null,"payment:upi":null,"contact:facebook":null,"services":null,"payment:wallets":null,"payment:cards":null,"operational_status_quality":null,"building:use":null,"building:levels:underground":null,"building:levels":null,"parking":null,"brand":null,"entrance":null,"air_conditioning":null,"addr:floor":null,"image":null,"not:operator:wikidata":null,"mobile":null,"name:es":null,"addr:city:ur":null,"ele":null,"locality":null,"addr:landmark":null,"power":null,"natural":null,"opening_hours:covid19":null,"closing_hours":null,"survey:date":null,"geometry":null,"name:pa":null,"operator:short":null,"contact:helpline":null,"contact:website":null,"addr:quarter":null,"addr:neighbourhood":null,"aeroway":null,"old_name":null,"contact:tollfree":null,"start_date":null,"internet_access:fee":null,"operator:wikidata":null,"level":null,"payment:debit_cards":null,"payment:credit_cards":null,"payment:cash":null,"motor_vehicle":null,"horse":null,"access":null,"addr:unit":null,"addr:locality":null,"shop":null,"highway":null,"emergency_telephone_code":null,"opening_hours":null,"operational_status":null,"building":null,"addr:housename":null,"addr":null,"place":null,"name:ur":null,"contact:email":null,"addr:suburb":null,"health_facility:type":null,"designation":null,"contact:mobile":null,"addr:block":null,"wheelchair":null,"medical_system":null,"operator":null,"addr:place":null,"speciality":null,"operator:type":null,"foot":null,"bicycle":null,"barrier":null,"fax":null,"email":null,"healthcare:speciality":null,"name:mr":null,"name:hi":null,"name:en":null,"wikipedia":null,"wikimedia_commons":null,"addr:housenumber":null,"phone":null,"description":null,"alias":null,"name:kn":null,"wikidata":null,"internet_access":null,"check_date":null,"addr:subdistrict":null,"addr:street":null,"website":null,"contact:phone":null,"addr:city":null,"addr:state":"Maharastra","addr:postcode":"442605","addr:full":"Mahadwadi","addr:district":"Gadchiroli","name:etymology:wikidata":null,"healthcare":null,"emergency":null,"addr:country":null,"postal_code":null,"population":null,"name:te":null,"name":"Janatal Hospital","is_in":null,"alt_name":null,"AND_a_nosr_p":null,"n":1,"distance":0.12088695158390561,"feature_x":79.98867452229166,"feature_y":20.346765979276565,"nearest_x":80.0155217,"nearest_y":20.2288979},"geometry":{"type":"Point","coordinates":[79.98867452229166,20.346765979276565]}},
{"type":"Feature","properties":{"fid":4114,"id":40944,"objectid_1":40944.0,"objectid":107479.0,"village":"Nagri","vlcode":"539100","gram_panch":null,"gram_pan_1":null,"block":"Gadchiroli","bkcode":"108","subdistric":"Gadchiroli","sdcode":"4057","sub_distri":"Gadchiroli","district":"Gadchiroli","dtcode":"475","district_h":"GADCHIROLI","state":"MH","stcode":"27","uqcode":null,"country":"India","total_urba":"Rural","total_hous":285.0,"total_popu":1053.0,"avg_househ":3.69473684,"total_geog":665.0,"total_male":537.0,"total_fema":516.0,"tapwater_t":"Not Available","tapwater_u":"Not Available","covered_we":"Available","covered__1":"Available","covered__2":"Available","uncovered_":"Available","uncovere_1":"Available","uncovere_2":"Available","handpump_s":"Available","hand_pump_":"Available","hand_pum_1":"Available","tubewell_b":"Not Available","tube_wells":"Not Available","tube_wel_1":"Not Available","spring_sta":"Not Available","spring_fun":"Not Available","spring_f_1":"Not Available","river_cana":"Not Available","tank_pond_":"Not Available","others_sta":"Not Available","closed_dra":"Not Available","open_drain":"Available","village_pi":"Available","forest_are":0.0,"area_under":118.0,"barren_unc":0.0,"permanent_":54.0,"land_under":0.0,"culturable":49.0,"fallows_la":50.0,"current_fa":8.0,"net_area_s":386.0,"total_unir":281.0,"area_irrig":105.0,"canals_are":0.0,"wells_tube":3.0,"tanks_lake":278.0,"waterfall_":0.0,"other_sour":0.0,"nearest_to":"GADCHIROLI","nearest__1":16.0,"shape_leng":11822.583675924448,"shape_le_1":11822.583675924448,"shape_area":6239173.1458893083,"ds_name":"Administrative Boundary","src_agency":"Survey of India (SOI)","state_name":"Maharashtra\n","full_id":"n7625491627","osm_id":"7625491627","osm_type":"node","amenity":"hospital","ref":null,"phone:mobile":null,"loc_name:en":null,"medical_supply":null,"loc_name":null,"short_name:en":null,"short_name":null,"payment:google_pay":null,"payment:coins":null,"service":null,"payment:visa":null,"payment:mastercard":null,"payment:contactless":null,"payment:app":null,"internet_access:ssid":null,"payment:upi":null,"contact:facebook":null,"services":null,"payment:wallets":null,"payment:cards":null,"operational_status_quality":null,"building:use":null,"building:levels:underground":null,"building:levels":null,"parking":null,"brand":null,"entrance":null,"air_conditioning":null,"addr:floor":null,"image":null,"not:operator:wikidata":null,"mobile":null,"name:es":null,"addr:city:ur":null,"ele":null,"locality":null,"addr:landmark":null,"power":null,"natural":null,"opening_hours:covid19":null,"closing_hours":null,"survey:date":null,"geometry":null,"name:pa":null,"operator:short":null,"contact:helpline":null,"contact:website":null,"addr:quarter":null,"addr:neighbourhood":null,"aeroway":null,"old_name":null,"contact:tollfree":null,"start_date":null,"internet_access:fee":null,"operator:wikidata":null,"level":null,"payment:debit_cards":null,"payment:credit_cards":null,"payment:cash":null,"motor_vehicle":null,"horse":null,"access":null,"addr:unit":null,"addr:locality":null,"shop":null,"highway":null,"emergency_telephone_code":null,"opening_hours":null,"operational_status":null,"building":null,"addr:housename":null,"addr":null,"place":null,"name:ur":null,"contact:email":null,"addr:suburb":null,"health_facility:type":null,"designation":null,"contact:mobile":null,"addr:block":null,"wheelchair":null,"medical_system":null,"operator":null,"addr:place":null,"speciality":null,"operator:type":null,"foot":null,"bicycle":null,"barrier":null,"fax":null,"email":null,"healthcare:speciality":null,"name:mr":null,"name:hi":null,"name:en":null,"wikipedia":null,"wikimedia_commons":null,"addr:housenumber":null,"phone":null,"description":null,"alias":null,"name:kn":null,"wikidata":null,"internet_access":null,"check_date":null,"addr:subdistrict":null,"addr:street":null,"website":null,"contact:phone":null,"addr:city":null,"addr:state":"Maharastra","addr:postcode":"442605","addr:full":"Mahadwadi","addr:district":"Gadchiroli","name:etymology:wikidata":null,"healthcare":null,"emergency":null,"addr:country":null,"postal_code":null,"population":null,"name:te":null,"name":"Janatal Hospital","is_in":null,"alt_name":null,"AND_a_nosr_p":null,"n":1,"distance":0.063804631996001074,"feature_x":79.973181143887487,"feature_y":20.27662952863583,"nearest_x":80.0155217,"nearest_y":20.2288979},"geometry":{"type":"Point","coordinates":[79.973181143887487,20.27662952863583]}},
{"type":"Feature","properties":{"fid":4288,"id":41130,"objectid_1":41130.0,"objectid":107665.0,"village":"Belpatali","vlcode":"540808","gram_panch":null,"gram_pan_1":null,"block":"Brahmapuri","bkcode":"118","subdistric":"Brahmapuri","sdcode":"4067","sub_distri":"Brahmapuri","district":"Chandrapur","dtcode":"473","district_h":"CHANDRAPUR","state":"MH","stcode":"27","uqcode":null,"country":"India","total_urba":"Rural","total_hous":168.0,"total_popu":651.0,"avg_househ":3.875,"total_geog":203.0,"total_male":333.0,"total_fema":318.0,"tapwater_t":"Not Available","tapwater_u":"Not Available","covered_we":"Not Available","covered__1":"Not Available","covered__2":"Not Available","uncovered_":"Available","uncovere_1":"Available","uncovere_2":"Available","handpump_s":"Available","hand_pump_":"Available","hand_pum_1":"Available","tubewell_b":"Not Available","tube_wells":"Not Available","tube_wel_1":"Not Available","spring_sta":"Not Available","spring_fun":"Not Available","spring_f_1":"Not Available","river_cana":"Not Available","tank_pond_":"Not Available","others_sta":"Not Available","closed_dra":"Not Available","open_drain":"Available","village_pi":"Available","forest_are":0.0,"area_under":0.0,"barren_unc":24.0,"permanent_":9.0,"land_under":0.0,"culturable":44.0,"fallows_la":0.0,"current_fa":0.0,"net_area_s":126.0,"total_unir":38.0,"area_irrig":88.0,"canals_are":0.0,"wells_tube":30.0,"tanks_lake":0.0,"waterfall_":0.0,"other_sour":8.0,"nearest_to":"BRAHMAPURI","nearest__1":23.0,"shape_leng":7625.165483350871,"shape_le_1":7625.165483350871,"shape_area":2208545.9731492773,"ds_name":"Administrative Boundary","src_agency":"Survey of India (SOI)","state_name":"Maharashtra\n","full_id":"n7229288462","osm_id":"7229288462","osm_type":"node","amenity":"hospital","ref":null,"phone:mobile":null,"loc_name:en":null,"medical_supply":null,"loc_name":null,"short_name:en":null,"short_name":null,"payment:google_pay":null,"payment:coins":null,"service":null,"payment:visa":null,"payment:mastercard":null,"payment:contactless":null,"payment:app":null,"internet_access:ssid":null,"payment:upi":null,"contact:facebook":null,"services":null,"payment:wallets":null,"payment:cards":null,"operational_status_quality":null,"building:use":null,"building:levels:underground":null,"building:levels":null,"parking":null,"brand":null,"entrance":null,"air_conditioning":null,"addr:floor":null,"image":null,"not:operator:wikidata":null,"mobile":null,"name:es":null,"addr:city:ur":null,"ele":null,"locality":null,"addr:landmark":null,"power":null,"natural":null,"opening_hours:covid19":null,"closing_hours":null,"survey:date":null,"geometry":null,"name:pa":null,"operator:short":null,"contact:helpline":null,"contact:website":null,"addr:quarter":null,"addr:neighbourhood":null,"aeroway":null,"old_name":null,"contact:tollfree":null,"start_date":null,"internet_access:fee":null,"operator:wikidata":null,"level":null,"payment:debit_cards":null,"payment:credit_cards":null,"payment:cash":null,"motor_vehicle":null,"horse":null,"access":null,"addr:unit":null,"addr:locality":null,"shop":null,"highway":null,"emergency_telephone_code":null,"opening_hours":null,"operational_status":null,"building":null,"addr:housename":null,"addr":null,"place":null,"name:ur":null,"contact:email":null,"addr:suburb":null,"health_facility:type":null,"designation":null,"contact:mobile":null,"addr:block":null,"wheelchair":null,"medical_system":null,"operator":null,"addr:place":null,"speciality":null,"operator:type":null,"foot":null,"bicycle":null,"barrier":null,"fax":null,"email":null,"healthcare:speciality":null,"name:mr":null,"name:hi":null,"name:en":null,"wikipedia":null,"wikimedia_commons":null,"addr:housenumber":null,"phone":null,"description":"Sub District Hospital","alias":null,"name:kn":null,"wikidata":null,"internet_access":null,"check_date":null,"addr:subdistrict":"Armori","addr:street":null,"website":null,"contact:phone":null,"addr:city":null,"addr:state":"Maharashtra","addr:postcode":"441208","addr:full":"Armori, Back of Panchayat Samiti","addr:district":"Gadchiroli","name:etymology:wikidata":null,"healthcare":null,"emergency":null,"addr:country":null,"postal_code":null,"population":null,"name:te":null,"name":"SDH Armori","is_in":null,"alt_name":null,"AND_a_nosr_p":null,"n":1,"distance":0.077768207066008149,"feature_x":79.916175110713766,"feature_y":20.504984254363322,"nearest_x":79.985509,"nearest_y":20.4697606},"geometry":{"type":"Point","coordinates":[79.916175110713766,20.504984254363322]}},
{"type":"Feature","properties":{"fid":4344,"id":41187,"objectid_1":41187.0,"objectid":107722.0,"village":"Injewari","vlcode":"538575","gram_panch":null,"gram_pan_1":null,"block":"Armori","bkcode":"104","subdistric":"Armori","sdcode":"4053","sub_distri":"Armori","district":"Gadchiroli","dtcode":"475","district_h":"GADCHIROLI","state":"MH","stcode":"27","uqcode":null,"country":"India","total_urba":"Rural","total_hous":379.0,"total_popu":1492.0,"avg_househ":3.93667546,"total_geog":539.0,"total_male":746.0,"total_fema":746.0,"tapwater_t":"Not Available","tapwater_u":"Not Available","covered_we":"Not Available","covered__1":"Not Available","covered__2":"Not Available","uncovered_":"Available","uncovere_1":"Available","uncovere_2":"Available","handpump_s":"Available","hand_pump_":"Available","hand_pum_1":"Available","tubewell_b":"Not Available","tube_wells":"Not Available","tube_wel_1":"Not Available","spring_sta":"Not Available","spring_fun":"Not Available","spring_f_1":"Not Available","river_cana":"Not Available","tank_pond_":"Available","others_sta":"Not Available","closed_dra":"Not Available","open_drain":"Available","village_pi":"Available","forest_are":53.0,"area_under":160.0,"barren_unc":4.0,"permanent_":27.0,"land_under":3.0,"culturable":22.0,"fallows_la":0.0,"current_fa":21.0,"net_area_s":249.0,"total_unir":154.0,"area_irrig":95.0,"canals_are":0.0,"wells_tube":148.0,"tanks_lake":6.0,"waterfall_":0.0,"other_sour":0.0,"nearest_to":"DESAIGANJ","nearest__1":36.0,"shape_leng":8130.2755311865276,"shape_le_1":8130.2755311865276,"shape_area":3643113.0520711024,"ds_name":"Administrative Boundary","src_agency":"Survey of India (SOI)","state_name":"Maharashtra\n","full_id":"n7229288462","osm_id":"7229288462","osm_type":"node","amenity":"hospital","ref":null,"phone:mobile":null,"loc_name:en":null,"medical_supply":null,"loc_name":null,"short_name:en":null,"short_name":null,"payment:google_pay":null,"payment:coins":null,"service":null,"payment:visa":null,"payment:mastercard":null,"payment:contactless":null,"payment:app":null,"internet_access:ssid":null,"payment:upi":null,"contact:facebook":null,"services":null,"payment:wallets":null,"payment:cards":null,"operational_status_quality":null,"building:use":null,"building:levels:underground":null,"building:levels":null,"parking":null,"brand":null,"entrance":null,"air_conditioning":null,"addr:floor":null,"image":null,"not:operator:wikidata":null,"mobile":null,"name:es":null,"addr:city:ur":null,"ele":null,"locality":null,"addr:landmark":null,"power":null,"natural":null,"opening_hours:covid19":null,"closing_hours":null,"survey:date":null,"geometry":null,"name:pa":null,"operator:short":null,"contact:helpline":null,"contact:website":null,"addr:quarter":null,"addr:neighbourhood":null,"aeroway":null,"old_name":null,"contact:tollfree":null,"start_date":null,"internet_access:fee":null,"operator:wikidata":null,"level":null,"payment:debit_cards":null,"payment:credit_cards":null,"payment:cash":null,"motor_vehicle":null,"horse":null,"access":null,"addr:unit":null,"addr:locality":null,"shop":null,"highway":null,"emergency_telephone_code":null,"opening_hours":null,"operational_status":null,"building":null,"addr:housename":null,"addr":null,"place":null,"name:ur":null,"contact:email":null,"addr:suburb":null,"health_facility:type":null,"designation":null,"contact:mobile":null,"addr:block":null,"wheelchair":null,"medical_system":null,"operator":null,"addr:place":null,"speciality":null,"operator:type":null,"foot":null,"bicycle":null,"barrier":null,"fax":null,"email":null,"healthcare:speciality":null,"name:mr":null,"name:hi":null,"name:en":null,"wikipedia":null,"wikimedia_commons":null,"addr:housenumber":null,"phone":null,"description":"Sub District Hospital","alias":null,"name:kn":null,"wikidata":null,"internet_access":null,"check_date":null,"addr:subdistrict":"Armori","addr:street":null,"website":null,"contact:phone":null,"addr:city":null,"addr:state":"Maharashtra","addr:postcode":"441208","addr:full":"Armori, Back of Panchayat Samiti","addr:district":"Gadchiroli","name:etymology:wikidata":null,"healthcare":null,"emergency":null,"addr:country":null,"postal_code":null,"population":null,"name:te":null,"name":"SDH Armori","is_in":null,"alt_name":null,"AND_a_nosr_p":null,"n":1,"distance":0.063364313973772943,"feature_x":80.015281589739004,"feature_y":20.413826449558616,"nearest_x":79.985509,"nearest_y":20.4697606},"geometry":{"type":"Point","coordinates":[80.015281589739004,20.413826449558616]}},
{"type":"Feature","properties":{"fid":4555,"id":41809,"objectid_1":41809.0,"objectid":108344.0,"village":"Pimpalgaon","vlcode":"540737","gram_panch":null,"gram_pan_1":null,"block":"Brahmapuri","bkcode":"118","subdistric":"Brahmapuri","sdcode":"4067","sub_distri":"Brahmapuri","district":"Chandrapur","dtcode":"473","district_h":"CHANDRAPUR","state":"MH","stcode":"27","uqcode":null,"country":"India","total_urba":"Rural","total_hous":1141.0,"total_popu":4711.0,"avg_househ":4.12883436,"total_geog":782.0,"total_male":2350.0,"total_fema":2361.0,"tapwater_t":"Not Available","tapwater_u":"Available","covered_we":"Available","covered__1":"Available","covered__2":"Available","uncovered_":"Available","uncovere_1":"Available","uncovere_2":"Available","handpump_s":"Available","hand_pump_":"Available","hand_pum_1":"Available","tubewell_b":"Not Available","tube_wells":"Not Available","tube_wel_1":"Not Available","spring_sta":"Not Available","spring_fun":"Not Available","spring_f_1":"Not Available","river_cana":"Available","tank_pond_":"Not Available","others_sta":"Not Available","closed_dra":"Not Available","open_drain":"Available","village_pi":"Available","forest_are":0.0,"area_under":147.0,"barren_unc":0.0,"permanent_":9.0,"land_under":0.0,"culturable":0.0,"fallows_la":0.0,"current_fa":5.0,"net_area_s":621.0,"total_unir":107.0,"area_irrig":513.0,"canals_are":0.0,"wells_tube":107.0,"tanks_lake":0.0,"waterfall_":0.0,"other_sour":0.0,"nearest_to":"BRAHMAPURI","nearest__1":11.0,"shape_leng":15452.125154108477,"shape_le_1":15452.125154108477,"shape_area":9050903.5115216058,"ds_name":"Administrative Boundary","src_agency":"Survey of India (SOI)","state_name":"Maharashtra\n","full_id":"n7713186405","osm_id":"7713186405","osm_type":"node","amenity":"hospital","ref":null,"phone:mobile":null,"loc_name:en":null,"medical_supply":null,"loc_name":null,"short_name:en":null,"short_name":null,"payment:google_pay":null,"payment:coins":null,"service":null,"payment:visa":null,"payment:mastercard":null,"payment:contactless":null,"payment:app":null,"internet_access:ssid":null,"payment:upi":null,"contact:facebook":null,"services":null,"payment:wallets":null,"payment:cards":null,"operational_status_quality":null,"building:use":null,"building:levels:underground":null,"building:levels":null,"parking":null,"brand":null,"entrance":null,"air_conditioning":null,"addr:floor":null,"image":null,"not:operator:wikidata":null,"mobile":null,"name:es":null,"addr:city:ur":null,"ele":null,"locality":null,"addr:landmark":null,"power":null,"natural":null,"opening_hours:covid19":null,"closing_hours":null,"survey:date":null,"geometry":null,"name:pa":null,"operator:short":null,"contact:helpline":null,"contact:website":null,"addr:quarter":null,"addr:neighbourhood":null,"aeroway":null,"old_name":null,"contact:tollfree":null,"start_date":null,"internet_access:fee":null,"operator:wikidata":null,"level":null,"payment:debit_cards":null,"payment:credit_cards":null,"payment:cash":null,"motor_vehicle":null,"horse":null,"access":null,"addr:unit":null,"addr:locality":null,"shop":null,"highway":null,"emergency_telephone_code":null,"opening_hours":null,"operational_status":null,"building":null,"addr:housename":null,"addr":null,"place":null,"name:ur":null,"contact:email":null,"addr:suburb":null,"health_facility:type":null,"designation":null,"contact:mobile":null,"addr:block":null,"wheelchair":null,"medical_system":null,"operator":null,"addr:place":null,"speciality":null,"operator:type":null,"foot":null,"bicycle":null,"barrier":null,"fax":null,"email":null,"healthcare:speciality":null,"name:mr":null,"name:hi":null,"name:en":null,"wikipedia":null,"wikimedia_commons":null,"addr:housenumber":null,"phone":null,"description":null,"alias":null,"name:kn":null,"wikidata":null,"internet_access":null,"check_date":null,"addr:subdistrict":null,"addr:street":null,"website":null,"contact:phone":null,"addr:city":null,"addr:state":"Maharashtra","addr:postcode":"441701","addr:full":"Soni","addr:district":"Bhandara","name:etymology:wikidata":null,"healthcare":null,"emergency":null,"addr:country":null,"postal_code":null,"population":null,"name:te":null,"name":"Government Hospital, Soni","is_in":null,"alt_name":null,"AND_a_nosr_p":null,"n":1,"distance":0.039783129428225421,"feature_x":79.90531627352928,"feature_y":20.653210087575196,"nearest_x":79.919758,"nearest_y":20.6902794},"geometry":{"type":"Point","coordinates":[79.90531627352928,20.653210087575196]}},
{"type":"Feature","properties":{"fid":4674,"id":41930,"objectid_1":41930.0,"objectid":108465.0,"village":"Khairi","vlcode":"537507","gram_panch":null,"gram_pan_1":null,"block":"Lakhandur","bkcode":"94","subdistric":"Lakhandur","sdcode":"4043","sub_distri":"Lakhandur","district":"Bhandara","dtcode":"471","district_h":"BHANDARA","state":"MH","stcode":"27","uqcode":null,"country":"India","total_urba":"Rural","total_hous":290.0,"total_popu":1286.0,"avg_househ":4.43448276,"total_geog":561.0,"total_male":644.0,"total_fema":642.0,"tapwater_t":"Not Available","tapwater_u":"Not Available","covered_we":"Not Available","covered__1":"Not Available","covered__2":"Not Available","uncovered_":"Available","uncovere_1":"Available","uncovere_2":"Available","handpump_s":"Available","hand_pump_":"Available","hand_pum_1":"Available","tubewell_b":"Available","tube_wells":"Available","tube_wel_1":"Available","spring_sta":"Not Available","spring_fun":"Not Available","spring_f_1":"Not Available","river_cana":"Not Available","tank_pond_":"Not Available","others_sta":"Not Available","closed_dra":"Not Available","open_drain":"Available","village_pi":"Available","forest_are":0.0,"area_under":57.0,"barren_unc":2.0,"permanent_":0.0,"land_under":1.0,"culturable":0.0,"fallows_la":0.0,"current_fa":0.0,"net_area_s":501.0,"total_unir":116.0,"area_irrig":385.0,"canals_are":0.0,"wells_tube":116.0,"tanks_lake":0.0,"waterfall_":0.0,"other_sour":0.0,"nearest_to":"Desaiganj","nearest__1":20.0,"shape_leng":10243.279439822163,"shape_le_1":10243.279439822163,"shape_area":5726393.1685340283,"ds_name":"Administrative Boundary","src_agency":"Survey of India (SOI)","state_name":"Maharashtra\n","full_id":"n7713186405","osm_id":"7713186405","osm_type":"node","amenity":"hospital","ref":null,"phone:mobile":null,"loc_name:en":null,"medical_supply":null,"loc_name":null,"short_name:en":null,"short_name":null,"payment:google_pay":null,"payment:coins":null,"service":null,"payment:visa":null,"payment:mastercard":null,"payment:contactless":null,"payment:app":null,"internet_access:ssid":null,"payment:upi":null,"contact:facebook":null,"services":null,"payment:wallets":null,"payment:cards":null,"operational_status_quality":null,"building:use":null,"building:levels:underground":null,"building:levels":null,"parking":null,"brand":null,"entrance":null,"air_conditioning":null,"addr:floor":null,"image":null,"not:operator:wikidata":null,"mobile":null,"name:es":null,"addr:city:ur":null,"ele":null,"locality":null,"addr:landmark":null,"power":null,"natural":null,"opening_hours:covid19":null,"closing_hours":null,"survey:date":null,"geometry":null,"name:pa":null,"operator:short":null,"contact:helpline":null,"contact:website":null,"addr:quarter":null,"addr:neighbourhood":null,"aeroway":null,"old_name":null,"contact:tollfree":null,"start_date":null,"internet_access:fee":null,"operator:wikidata":null,"level":null,"payment:debit_cards":null,"payment:credit_cards":null,"payment:cash":null,"motor_vehicle":null,"horse":null,"access":null,"addr:unit":null,"addr:locality":null,"shop":null,"highway":null,"emergency_telephone_code":null,"opening_hours":null,"operational_status":null,"building":null,"addr:housename":null,"addr":null,"place":null,"name:ur":null,"contact:email":null,"addr:suburb":null,"health_facility:type":null,"designation":null,"contact:mobile":null,"addr:block":null,"wheelchair":null,"medical_system":null,"operator":null,"addr:place":null,"speciality":null,"operator:type":null,"foot":null,"bicycle":null,"barrier":null,"fax":null,"email":null,"healthcare:speciality":null,"name:mr":null,"name:hi":null,"name:en":null,"wikipedia":null,"wikimedia_commons":null,"addr:housenumber":null,"phone":null,"description":null,"alias":null,"name:kn":null,"wikidata":null,"internet_access":null,"check_date":null,"addr:subdistrict":null,"addr:street":null,"website":null,"contact:phone":null,"addr:city":null,"addr:state":"Maharashtra","addr:postcode":"441701","addr:full":"Soni","addr:district":"Bhandara","name:etymology:wikidata":null,"healthcare":null,"emergency":null,"addr:country":null,"postal_code":null,"population":null,"name:te":null,"name":"Government Hospital, Soni","is_in":null,"alt_name":null,"AND_a_nosr_p":null,"n":1,"distance":0.042046186193237738,"feature_x":79.882037893191495,"feature_y":20.70885560294224,"nearest_x":79.919758,"nearest_y":20.6902794},"geometry":{"type":"Point","coordinates":[79.882037893191495,20.70885560294224]}},
{"type":"Feature","properties":{"fid":4711,"id":42026,"objectid_1":42026.0,"objectid":108561.0,"village":"Sawangi","vlcode":"538469","gram_panch":null,"gram_pan_1":null,"block":"Desaiganj (Vadasa)","bkcode":"103","subdistric":"Desaiganj (Vadasa)","sdcode":"4052","sub_distri":"Desaiganj (Vadasa)","district":"Gadchiroli","dtcode":"475","district_h":"GADCHIROLI","state":"MH","stcode":"27","uqcode":null,"country":"India","total_urba":"Rural","total_hous":623.0,"total_popu":2498.0,"avg_househ":4.00963082,"total_geog":1248.0,"total_male":1282.0,"total_fema":1216.0,"tapwater_t":"Available","tapwater_u":"Not Available","covered_we":"Available","covered__1":"Available","covered__2":"Available","uncovered_":"Available","uncovere_1":"Available","uncovere_2":"Available","handpump_s":"Available","hand_pump_":"Available","hand_pum_1":"Available","tubewell_b":"Available","tube_wells":"Available","tube_wel_1":"Available","spring_sta":"Not Available","spring_fun":"Not Available","spring_f_1":"Not Available","river_cana":"Available","tank_pond_":"Available","others_sta":"Not Available","closed_dra":"Not Available","open_drain":"Available","village_pi":"Available","forest_are":393.0,"area_under":173.0,"barren_unc":184.0,"permanent_":4.0,"land_under":11.0,"culturable":0.0,"fallows_la":56.0,"current_fa":14.0,"net_area_s":413.0,"total_unir":217.0,"area_irrig":196.0,"canals_are":172.0,"wells_tube":1.0,"tanks_lake":0.0,"waterfall_":0.0,"other_sour":43.0,"nearest_to":"DESAIGANJ","nearest__1":7.0,"shape_leng":13052.61634511273,"shape_le_1":13052.61634511273,"shape_area":9263146.6865378302,"ds_name":"Administrative Boundary","src_agency":"Survey of India (SOI)","state_name":"Maharashtra\n","full_id":"n7713186405","osm_id":"7713186405","osm_type":"node","amenity":"hospital","ref":null,"phone:mobile":null,"loc_name:en":null,"medical_supply":null,"loc_name":null,"short_name:en":null,"short_name":null,"payment:google_pay":null,"payment:coins":null,"service":null,"payment:visa":null,"payment:mastercard":null,"payment:contactless":null,"payment:app":null,"internet_access:ssid":null,"payment:upi":null,"contact:facebook":null,"services":null,"payment:wallets":null,"payment:cards":null,"operational_status_quality":null,"building:use":null,"building:levels:underground":null,"building:levels":null,"parking":null,"brand":null,"entrance":null,"air_conditioning":null,"addr:floor":null,"image":null,"not:operator:wikidata":null,"mobile":null,"name:es":null,"addr:city:ur":null,"ele":null,"locality":null,"addr:landmark":null,"power":null,"natural":null,"opening_hours:covid19":null,"closing_hours":null,"survey:date":null,"geometry":null,"name:pa":null,"operator:short":null,"contact:helpline":null,"contact:website":null,"addr:quarter":null,"addr:neighbourhood":null,"aeroway":null,"old_name":null,"contact:tollfree":null,"start_date":null,"internet_access:fee":null,"operator:wikidata":null,"level":null,"payment:debit_cards":null,"payment:credit_cards":null,"payment:cash":null,"motor_vehicle":null,"horse":null,"access":null,"addr:unit":null,"addr:locality":null,"shop":null,"highway":null,"emergency_telephone_code":null,"opening_hours":null,"operational_status":null,"building":null,"addr:housename":null,"addr":null,"place":null,"name:ur":null,"contact:email":null,"addr:suburb":null,"health_facility:type":null,"designation":null,"contact:mobile":null,"addr:block":null,"wheelchair":null,"medical_system":null,"operator":null,"addr:place":null,"speciality":null,"operator:type":null,"foot":null,"bicycle":null,"barrier":null,"fax":null,"email":null,"healthcare:speciality":null,"name:mr":null,"name:hi":null,"name:en":null,"wikipedia":null,"wikimedia_commons":null,"addr:housenumber":null,"phone":null,"description":null,"alias":null,"name:kn":null,"wikidata":null,"internet_access":null,"check_date":null,"addr:subdistrict":null,"addr:street":null,"website":null,"contact:phone":null,"addr:city":null,"addr:state":"Maharashtra","addr:postcode":"441701","addr:full":"Soni","addr:district":"Bhandara","name:etymology:wikidata":null,"healthcare":null,"emergency":null,"addr:country":null,"postal_code":null,"population":null,"name:te":null,"name":"Government Hospital, Soni","is_in":null,"alt_name":null,"AND_a_nosr_p":null,"n":1,"distance":0.035855639998066492,"feature_x":79.945752164385681,"feature_y":20.665582632244661,"nearest_x":79.919758,"nearest_y":20.6902794},"geometry":{"type":"Point","coordinates":[79.945752164385681,20.665582632244661]}}
]
}
